STARLINK-35731          
1 66228U 25244Y   25326.39245925  .00093745  00000+0  16730-2 0  9994
2 66228  53.1602  11.7107 0001227  99.5733 260.5414 15.49316883  5182
STARLINK-35758          
1 66229U 25244Z   25326.39211719  .00068879  00000+0  12346-2 0  9998
2 66229  53.1602  11.7088 0001120  82.2050 277.9086 15.49332217  5180
STARLINK-35736          
1 66230U 25244AA  25326.45628388  .00092603  00000+0  16521-2 0  9992
2 66230  53.1601  11.3975 0001434  62.6397 297.4758 15.49331379  5198
STARLINK-35735          
1 66231U 25244AB  25326.39141764  .00084744  00000+0  15156-2 0  9994
2 66231  53.1602  11.7039 0002423 149.9709 210.1439 15.49301805  5188
STARLINK-35753          
1 66232U 25244AC  25326.39108818  .00070673  00000+0  12664-2 0  9995
2 66232  53.1603  11.7024 0001115  64.1058 296.0066 15.49328444  5183
STARLINK-35626          
1 66233U 25244AD  25326.39074324  .00073219  00000+0  13110-2 0  9996
2 66233  53.1603  11.6999 0001150  79.7357 280.3782 15.49334651  5185
STARLINK-35537          
1 66234U 25245A   25326.50003471 -.02078618  00000+0 -49349-1 0  9990
2 66234  53.1608  65.0780 0001726  78.4454 111.2838 15.44717186  4855
STARLINK-35541          
1 66235U 25245B   25326.50003471 -.02067951  00000+0 -49089-1 0  9990
2 66235  53.1606  65.0735 0001529  70.7654 120.8402 15.44704069  4806
STARLINK-35454          
1 66236U 25245C   25326.50003471 -.02069644  00000+0 -44532-1 0  9990
2 66236  53.1607  65.0541 0001421  86.5472 114.2617 15.47536213  4685
STARLINK-35557          
1 66237U 25245D   25326.50003471 -.02074690  00000+0 -44665-1 0  9995
2 66237  53.1606  65.0499 0001437  77.7477 124.9582 15.47529203  4850
STARLINK-35556          
1 66238U 25245E   25326.50003471 -.01128002  00000+0 -22198-1 0  9999
2 66238  53.1605  65.0433 0001188  82.7263 123.1062 15.49673473  4855
STARLINK-35554          
1 66239U 25245F   25326.50003471 -.01166689  00000+0 -22658-1 0  9994
2 66239  53.1606  65.0396 0001353  79.8949 127.8532 15.49681573  4681
