CCSDS_OMM_VERS = 2.0
CREATION_DATE  = 
ORIGINATOR     = 

OBJECT_NAME    = STARLINK-35731
OBJECT_ID      = 2025-244Y
CENTER_NAME    = EARTH
REF_FRAME      = TEME
TIME_SYSTEM    = UTC
MEAN_ELEMENT_THEORY = SGP/SGP4

EPOCH          = 2025-11-22T09:25:08.479200
MEAN_MOTION    = 15.49316883
ECCENTRICITY   = .0001227
INCLINATION    = 53.1602
RA_OF_ASC_NODE = 11.7107
ARG_OF_PERICENTER = 99.5733
MEAN_ANOMALY   = 260.5414

EPHEMERIS_TYPE = 0
CLASSIFICATION_TYPE = U
NORAD_CAT_ID   = 66228
ELEMENT_SET_NO = 999
REV_AT_EPOCH   = 518
BSTAR          = .1673E-2
MEAN_MOTION_DOT = .93745E-3
MEAN_MOTION_DDOT = 0

CCSDS_OMM_VERS = 2.0
CREATION_DATE  = 
ORIGINATOR     = 

OBJECT_NAME    = STARLINK-35758
OBJECT_ID      = 2025-244Z
CENTER_NAME    = EARTH
REF_FRAME      = TEME
TIME_SYSTEM    = UTC
MEAN_ELEMENT_THEORY = SGP/SGP4

EPOCH          = 2025-11-22T09:24:38.925216
MEAN_MOTION    = 15.49332217
ECCENTRICITY   = .000112
INCLINATION    = 53.1602
RA_OF_ASC_NODE = 11.7088
ARG_OF_PERICENTER = 82.2050
MEAN_ANOMALY   = 277.9086

EPHEMERIS_TYPE = 0
CLASSIFICATION_TYPE = U
NORAD_CAT_ID   = 66229
ELEMENT_SET_NO = 999
REV_AT_EPOCH   = 518
BSTAR          = .12346E-2
MEAN_MOTION_DOT = .68879E-3
MEAN_MOTION_DDOT = 0

CCSDS_OMM_VERS = 2.0
CREATION_DATE  = 
ORIGINATOR     = 

OBJECT_NAME    = STARLINK-35736
OBJECT_ID      = 2025-244AA
CENTER_NAME    = EARTH
REF_FRAME      = TEME
TIME_SYSTEM    = UTC
MEAN_ELEMENT_THEORY = SGP/SGP4

EPOCH          = 2025-11-22T10:57:02.927232
MEAN_MOTION    = 15.49331379
ECCENTRICITY   = .0001434
INCLINATION    = 53.1601
RA_OF_ASC_NODE = 11.3975
ARG_OF_PERICENTER = 62.6397
MEAN_ANOMALY   = 297.4758

EPHEMERIS_TYPE = 0
CLASSIFICATION_TYPE = U
NORAD_CAT_ID   = 66230
ELEMENT_SET_NO = 999
REV_AT_EPOCH   = 519
BSTAR          = .16521E-2
MEAN_MOTION_DOT = .92603E-3
MEAN_MOTION_DDOT = 0

CCSDS_OMM_VERS = 2.0
CREATION_DATE  = 
ORIGINATOR     = 

OBJECT_NAME    = STARLINK-35735
OBJECT_ID      = 2025-244AB
CENTER_NAME    = EARTH
REF_FRAME      = TEME
TIME_SYSTEM    = UTC
MEAN_ELEMENT_THEORY = SGP/SGP4

EPOCH          = 2025-11-22T09:23:38.484096
MEAN_MOTION    = 15.49301805
ECCENTRICITY   = .0002423
INCLINATION    = 53.1602
RA_OF_ASC_NODE = 11.7039
ARG_OF_PERICENTER = 149.9709
MEAN_ANOMALY   = 210.1439

EPHEMERIS_TYPE = 0
CLASSIFICATION_TYPE = U
NORAD_CAT_ID   = 66231
ELEMENT_SET_NO = 999
REV_AT_EPOCH   = 518
BSTAR          = .15156E-2
MEAN_MOTION_DOT = .84744E-3
MEAN_MOTION_DDOT = 0

CCSDS_OMM_VERS = 2.0
CREATION_DATE  = 
ORIGINATOR     = 

OBJECT_NAME    = STARLINK-35753
OBJECT_ID      = 2025-244AC
CENTER_NAME    = EARTH
REF_FRAME      = TEME
TIME_SYSTEM    = UTC
MEAN_ELEMENT_THEORY = SGP/SGP4

EPOCH          = 2025-11-22T09:23:10.018752
MEAN_MOTION    = 15.49328444
ECCENTRICITY   = .0001115
INCLINATION    = 53.1603
RA_OF_ASC_NODE = 11.7024
ARG_OF_PERICENTER = 64.1058
MEAN_ANOMALY   = 296.0066

EPHEMERIS_TYPE = 0
CLASSIFICATION_TYPE = U
NORAD_CAT_ID   = 66232
ELEMENT_SET_NO = 999
REV_AT_EPOCH   = 518
BSTAR          = .12664E-2
MEAN_MOTION_DOT = .70673E-3
MEAN_MOTION_DDOT = 0

CCSDS_OMM_VERS = 2.0
CREATION_DATE  = 
ORIGINATOR     = 

OBJECT_NAME    = STARLINK-35626
OBJECT_ID      = 2025-244AD
CENTER_NAME    = EARTH
REF_FRAME      = TEME
TIME_SYSTEM    = UTC
MEAN_ELEMENT_THEORY = SGP/SGP4

EPOCH          = 2025-11-22T09:22:40.215936
MEAN_MOTION    = 15.49334651
ECCENTRICITY   = .000115
INCLINATION    = 53.1603
RA_OF_ASC_NODE = 11.6999
ARG_OF_PERICENTER = 79.7357
MEAN_ANOMALY   = 280.3782

EPHEMERIS_TYPE = 0
CLASSIFICATION_TYPE = U
NORAD_CAT_ID   = 66233
ELEMENT_SET_NO = 999
REV_AT_EPOCH   = 518
BSTAR          = .1311E-2
MEAN_MOTION_DOT = .73219E-3
MEAN_MOTION_DDOT = 0

CCSDS_OMM_VERS = 2.0
CREATION_DATE  = 
ORIGINATOR     = 

OBJECT_NAME    = STARLINK-35537
OBJECT_ID      = 2025-245A
CENTER_NAME    = EARTH
REF_FRAME      = TEME
TIME_SYSTEM    = UTC
MEAN_ELEMENT_THEORY = SGP/SGP4

EPOCH          = 2025-11-22T12:00:02.998944
MEAN_MOTION    = 15.44717186
ECCENTRICITY   = .0001726
INCLINATION    = 53.1608
RA_OF_ASC_NODE = 65.0780
ARG_OF_PERICENTER = 78.4454
MEAN_ANOMALY   = 111.2838

EPHEMERIS_TYPE = 0
CLASSIFICATION_TYPE = U
NORAD_CAT_ID   = 66234
ELEMENT_SET_NO = 999
REV_AT_EPOCH   = 485
BSTAR          = -.49349E-1
MEAN_MOTION_DOT = -.2078618E-1
MEAN_MOTION_DDOT = 0

CCSDS_OMM_VERS = 2.0
CREATION_DATE  = 
ORIGINATOR     = 

OBJECT_NAME    = STARLINK-35541
OBJECT_ID      = 2025-245B
CENTER_NAME    = EARTH
REF_FRAME      = TEME
TIME_SYSTEM    = UTC
MEAN_ELEMENT_THEORY = SGP/SGP4

EPOCH          = 2025-11-22T12:00:02.998944
MEAN_MOTION    = 15.44704069
ECCENTRICITY   = .0001529
INCLINATION    = 53.1606
RA_OF_ASC_NODE = 65.0735
ARG_OF_PERICENTER = 70.7654
MEAN_ANOMALY   = 120.8402

EPHEMERIS_TYPE = 0
CLASSIFICATION_TYPE = U
NORAD_CAT_ID   = 66235
ELEMENT_SET_NO = 999
REV_AT_EPOCH   = 480
BSTAR          = -.49089E-1
MEAN_MOTION_DOT = -.2067951E-1
MEAN_MOTION_DDOT = 0

CCSDS_OMM_VERS = 2.0
CREATION_DATE  = 
ORIGINATOR     = 

OBJECT_NAME    = STARLINK-35454
OBJECT_ID      = 2025-245C
CENTER_NAME    = EARTH
REF_FRAME      = TEME
TIME_SYSTEM    = UTC
MEAN_ELEMENT_THEORY = SGP/SGP4

EPOCH          = 2025-11-22T12:00:02.998944
MEAN_MOTION    = 15.47536213
ECCENTRICITY   = .0001421
INCLINATION    = 53.1607
RA_OF_ASC_NODE = 65.0541
ARG_OF_PERICENTER = 86.5472
MEAN_ANOMALY   = 114.2617

EPHEMERIS_TYPE = 0
CLASSIFICATION_TYPE = U
NORAD_CAT_ID   = 66236
ELEMENT_SET_NO = 999
REV_AT_EPOCH   = 468
BSTAR          = -.44532E-1
MEAN_MOTION_DOT = -.2069644E-1
MEAN_MOTION_DDOT = 0

CCSDS_OMM_VERS = 2.0
CREATION_DATE  = 
ORIGINATOR     = 

OBJECT_NAME    = STARLINK-35557
OBJECT_ID      = 2025-245D
CENTER_NAME    = EARTH
REF_FRAME      = TEME
TIME_SYSTEM    = UTC
MEAN_ELEMENT_THEORY = SGP/SGP4

EPOCH          = 2025-11-22T12:00:02.998944
MEAN_MOTION    = 15.47529203
ECCENTRICITY   = .0001437
INCLINATION    = 53.1606
RA_OF_ASC_NODE = 65.0499
ARG_OF_PERICENTER = 77.7477
MEAN_ANOMALY   = 124.9582

EPHEMERIS_TYPE = 0
CLASSIFICATION_TYPE = U
NORAD_CAT_ID   = 66237
ELEMENT_SET_NO = 999
REV_AT_EPOCH   = 485
BSTAR          = -.44665E-1
MEAN_MOTION_DOT = -.207469E-1
MEAN_MOTION_DDOT = 0

CCSDS_OMM_VERS = 2.0
CREATION_DATE  = 
ORIGINATOR     = 

OBJECT_NAME    = STARLINK-35556
OBJECT_ID      = 2025-245E
CENTER_NAME    = EARTH
REF_FRAME      = TEME
TIME_SYSTEM    = UTC
MEAN_ELEMENT_THEORY = SGP/SGP4

EPOCH          = 2025-11-22T12:00:02.998944
MEAN_MOTION    = 15.49673473
ECCENTRICITY   = .0001188
INCLINATION    = 53.1605
RA_OF_ASC_NODE = 65.0433
ARG_OF_PERICENTER = 82.7263
MEAN_ANOMALY   = 123.1062

EPHEMERIS_TYPE = 0
CLASSIFICATION_TYPE = U
NORAD_CAT_ID   = 66238
ELEMENT_SET_NO = 999
REV_AT_EPOCH   = 485
BSTAR          = -.22198E-1
MEAN_MOTION_DOT = -.1128002E-1
MEAN_MOTION_DDOT = 0

CCSDS_OMM_VERS = 2.0
CREATION_DATE  = 
ORIGINATOR     = 

OBJECT_NAME    = STARLINK-35554
OBJECT_ID      = 2025-245F
CENTER_NAME    = EARTH
REF_FRAME      = TEME
TIME_SYSTEM    = UTC
MEAN_ELEMENT_THEORY = SGP/SGP4

EPOCH          = 2025-11-22T12:00:02.998944
MEAN_MOTION    = 15.49681573
ECCENTRICITY   = .0001353
INCLINATION    = 53.1606
RA_OF_ASC_NODE = 65.0396
ARG_OF_PERICENTER = 79.8949
MEAN_ANOMALY   = 127.8532

EPHEMERIS_TYPE = 0
CLASSIFICATION_TYPE = U
NORAD_CAT_ID   = 66239
ELEMENT_SET_NO = 999
REV_AT_EPOCH   = 468
BSTAR          = -.22658E-1
MEAN_MOTION_DOT = -.1166689E-1
MEAN_MOTION_DDOT = 0

